CUTE-1 (CO-55)          
1 27844U 03031E   23245.53403516  .00000402  00000+0  19840-3 0  9995
2 27844  98.6800 251.6658 0008527 260.7623  99.2591 14.22860539 46767
CUBESAT XI-IV (CO-57)   
1 27848U 03031J   23244.44650260  .00000336  00000+0  17075-3 0  9992
2 27848  98.6836 250.9798 0008468 281.8135  78.2093 14.22359566 46344
CUBESAT XI-V            
1 28895U 05043F   23244.59389234  .00001960  00000+0  36632-3 0  9990
2 28895  98.1635  16.1237 0016094 187.4585 172.6381 14.65948553952233
CUTE-1.7+APD II (CO-65) 
1 32785U 08021C   23244.82257879  .00003715  00000+0  36326-3 0  9997
2 32785  97.7129 209.1956 0011186 200.7637 159.3130 14.92902314832321
AAUSAT-II               
1 32788U 08021F   23244.42721361  .00011927  00000+0  83192-3 0  9995
2 32788  97.5659 222.2537 0009964  94.8536 265.3829 15.05497034834577
DELFI-C3 (DO-64)        
1 32789U 08021G   23245.51309763  .00102353  00000+0  18932-2 0  9998
2 32789  97.2958 267.0684 0007405 163.9209 196.2279 15.48644281839403
SEEDS II (CO-66)        
1 32791U 08021J   23245.46508856  .00006835  00000+0  58765-3 0  9996
2 32791  97.6627 215.1554 0013239 143.5705 216.6421 14.97660174833301
SWISSCUBE               
1 35932U 09051B   23244.65060240  .00001119  00000+0  25451-3 0  9996
2 35932  98.5097 116.7882 0008370 124.4457 235.7533 14.57916843740355
BEESAT-1                
1 35933U 09051C   23245.09839794  .00000975  00000+0  22369-3 0  9998
2 35933  98.5023 118.4949 0006474 132.3744 227.8003 14.57802013740579
ITUPSAT1                
1 35935U 09051E   23245.12041343  .00000891  00000+0  20960-3 0  9991
2 35935  98.5121 118.4337 0008646 139.7843 220.3996 14.56838093740198
TISAT 1                 
1 36799U 10035E   23245.09580931  .00004860  00000+0  42604-3 0  9990
2 36799  98.1241 117.7400 0012307  80.0294 280.2315 14.97098078713934
M-CUBED & EXP-1 PRIME   
1 37855U 11061F   23245.23626163  .00026363  00000+0  73778-3 0  9996
2 37855 101.7095 250.6706 0110310 162.8581 197.6418 15.30705538648805
AEROCUBE 4.5A           
1 38767U 12048K   23244.47452887  .00008338  00000+0  56172-3 0  9991
2 38767  64.6641 159.3205 0112888 128.6134 232.5157 15.02167478216845
AEROCUBE 4.5B           
1 38768U 12048L   23245.33376510  .00014825  00000+0  82010-3 0  9994
2 38768  64.6625  97.8362 0091657 121.0899 239.9257 15.10492456217617
STRAND-1                
1 39090U 13009E   23244.80771303  .00000380  00000+0  14640-3 0  9996
2 39090  98.3877  76.0654 0009750  41.8871 318.3060 14.35672775550719
BRITE-AUSTRIA           
1 39091U 13009F   23245.02216200  .00000229  00000+0  94165-4 0  9995
2 39091  98.3909  75.5121 0011314  47.0238 313.1895 14.35535832550781
BEESAT-3                
1 39135U 13015F   23244.52190188  .00064999  00000+0  11048-2 0  9992
2 39135  64.8535  79.4115 0017779 247.2222 112.7042 15.50887982573749
BEESAT-2                
1 39136U 13015G   23245.52667222  .00047579  00000+0  93824-3 0  9990
2 39136  64.8640  89.1306 0027759 263.1517  96.6465 15.46498299574092
NEE-01 PEGASO           
1 39151U 13018B   23245.24187294  .00002796  00000+0  34849-3 0  9999
2 39151  98.0153 355.5882 0014702 260.3511  99.6041 14.83203069559111
ESTCUBE 1               
1 39161U 13021C   23245.44693630  .00001991  00000+0  30564-3 0  9998
2 39161  97.8665 315.5141 0010585  83.8683 276.3732 14.74631767554558
POPACS 1                
1 39268U 13055D   23245.39070031  .00017848  00000+0  38767-3 0  9992
2 39268  80.9899 117.2844 0487536 286.9845  67.8487 14.71341592519243
POPACS 2                
1 39269U 13055E   23244.57318870  .00013553  00000+0  33941-3 0  9996
2 39269  81.0087 190.9173 0599634 118.6144 247.6718 14.44866199513608
POPACS 3                
1 39270U 13055F   23245.38091679  .00006231  00000+0  18128-3 0  9998
2 39270  81.0100 232.2899 0655635 235.0960 118.6933 14.29891663512292
ZACUBE-1 (TSHEPISOSAT)  
1 39417U 13066B   23245.16835538  .00005029  00000+0  57186-3 0  9990
2 39417  97.6922 204.1897 0055434  35.9915 324.5013 14.85554021528621
WNISAT-1                
1 39423U 13066H   23245.55556475  .00000968  00000+0  19657-3 0  9998
2 39423  97.6947  98.1157 0171853 194.2328 165.3997 14.54336913518687
TRITON-1                
1 39427U 13066M   23245.36325938  .00003159  00000+0  47445-3 0  9990
2 39427  97.8325 168.3304 0105577 290.6939  68.2976 14.71511146523895
DELFI-N3XT              
1 39428U 13066N   23244.73201263  .00005816  00000+0  82417-3 0  9995
2 39428  97.8302 166.8806 0107620 304.0003  55.1018 14.73467303523400
GOMX-1                  
1 39430U 13066Q   23245.52618941  .00002420  00000+0  42095-3 0  9997
2 39430  97.7680 132.1370 0146350  88.5982 273.1980 14.62139250520835
CUBEBUG-2 (LO-74)       
1 39440U 13066AA  23244.58264937  .00002949  00000+0  37869-3 0  9994
2 39440  97.7766 190.8846 0075780 137.5949 223.1153 14.79925040526657
NEE-02 KRYSAOR          
1 39441U 13066AB  23244.80006859  .00001931  00000+0  26250-3 0  9999
2 39441  97.7872 187.7864 0078271 154.4230 206.0886 14.77808271525162
FUNCUBE-1 (AO-73)       
1 39444U 13066AE  23245.37610398  .00006459  00000+0  70145-3 0  9996
2 39444  97.6785 207.0105 0053057  20.3291 340.0021 14.87412795527709
UWE-3                   
1 39446U 13066AG  23244.77609813  .00003811  00000+0  46214-3 0  9990
2 39446  97.7406 197.1887 0066730  88.5740 272.3117 14.82574181525776
BRITE-CA1 (TORONTO)     
1 40020U 14033L   23245.37837305  .00001084  00000+0  18714-3 0  9995
2 40020  97.8368  28.6789 0083825 294.3082  64.9387 14.68175570492582
DUCHIFAT-1              
1 40021U 14033M   23245.34324003  .00008251  00000+0  68152-3 0  9993
2 40021  98.0676 211.8720 0012663  27.5430 332.6460 14.99180490500740
NANOSATC-BR1            
1 40024U 14033Q   23245.15144811  .00007295  00000+0  63973-3 0  9995
2 40024  98.0335 202.2801 0011418  36.3549 323.8445 14.96908473500443
QB50P1                  
1 40025U 14033R   23245.47594959  .00006012  00000+0  55894-3 0  9992
2 40025  98.0017 193.6740 0012490  46.5375 313.6881 14.94674377500191
QB50P2                  
1 40032U 14033Y   23245.30844726  .00005239  00000+0  49877-3 0  9996
2 40032  97.9699 186.9000 0011848  44.7915 315.4259 14.93799579500003
PERSEUS-M2              
1 40037U 14033AD  23244.56867502  .00001915  00000+0  21067-3 0  9993
2 40037  97.9060 170.0860 0015361  71.5176 288.7708 14.88703870499213
PERSEUS-M1              
1 40039U 14033AF  23245.21217306  .00002141  00000+0  23675-3 0  9998
2 40039  97.8909 167.5481 0015174  69.0473 291.2365 14.88379094499181
POLYITAN-1              
1 40042U 14033AJ  23244.82734670  .00007493  00000+0  67619-3 0  9997
2 40042  98.0140 195.1242 0014240  39.9767 320.2498 14.95745522500007
TIGRISAT                
1 40043U 14033AK  23244.95849017  .00002699  00000+0  38093-3 0  9991
2 40043  97.6712  56.1444 0057775 163.1297 197.1852 14.76843067495040
AEROCUBE 6A             
1 40045U 14033AM  23245.48908980  .00004577  00000+0  60490-3 0  9990
2 40045  97.6598  66.5554 0054790 145.2998 215.1809 14.79395042495292
AEROCUBE 6B             
1 40046U 14033AN  23245.07685200  .00004969  00000+0  64488-3 0  9999
2 40046  97.6548  64.6638 0053434 143.3769 217.1115 14.80167513495406
UKUBE-1                 
1 40074U 14037F   23245.21270852  .00004920  00000+0  52907-3 0  9993
2 40074  98.3368 153.7539 0002642 318.5091  41.5923 14.89021727495719
BRITE-PL2 (HEWELIUSZ)   
1 40119U 14049B   23244.49609320  .00002101  00000+0  24085-3 0  9996
2 40119  97.8827 341.0053 0015483 234.3546 125.6229 14.86912457489502
GRIFEX                  
1 40379U 15003D   23245.10324630  .00062835  00000+0  11027-2 0  9993
2 40379  99.0800 200.8177 0069761   7.7528 352.4778 15.47588262475251
CP10 (EXOCUBE)          
1 40380U 15003E   23244.56458415  .00036511  00000+0  89698-3 0  9995
2 40380  99.0842 188.6203 0091355  45.8919 314.9790 15.36285944474438
EXACTVIEW 9             
1 40936U 15052G   23243.11099261  .00002641  00000+0  26350-3 0  9999
2 40936   6.0030 272.0785 0010759 270.7790  89.1105 14.78858219428368
AEROCUBE 5C             
1 40965U 15058B   23244.82966517  .00004678  00000+0  50672-3 0  9999
2 40965  64.7732 167.6882 0165789  43.7231 317.6868 14.79843458214176
AEROCUBE 7              
1 40966U 15058C   23245.19254689  .00005813  00000+0  61291-3 0  9992
2 40966  64.7718 162.3908 0163051  43.2879 318.0905 14.80900885214284
GALASSIA                
1 41170U 15077E   23245.49682211  .00074097  00000+0  13131-2 0  9999
2 41170  14.9876 359.7413 0007292  92.5592 267.5568 15.48367428428184
VELOX-II                
1 41171U 15077F   23244.85414787  .00025574  00000+0  80213-3 0  9992
2 41171  14.9896 119.2191 0005156 207.1049 152.9005 15.30750060427010
HORYU-4                 
1 41340U 16012D   23244.74975724  .00007733  00000+0  47044-3 0  9993
2 41340  31.0040  50.4529 0011121 293.3526  66.5942 15.09028731414291
E-ST@R-II               
1 41459U 16025D   23245.52828250  .00037868  00000+0  96083-3 0  9995
2 41459  98.1770  94.9392 0096836 188.1589 171.8082 15.34813956404746
AAUSAT 4                
1 41460U 16025E   23245.36745420  .01516656  14297-2  23835-2 0  9994
2 41460  98.1324 112.2610 0017355 137.4491 222.8135 16.03977710405897
BEESAT-4                
1 41619U 16040W   23245.10784504  .00352877  00000+0  14281-2 0  9996
2 41619  97.1396 296.4126 0004422 216.8656 143.2312 15.85411618388942
RAVAN                   
1 41849U 16067B   23245.40049777  .00007716  00000+0  51957-3 0  9990
2 41849  98.0453  43.1670 0014887 289.1237  70.8378 15.06916359372390
CELTEE 1                
1 41850U 16067C   23245.36149110  .00005037  00000+0  38579-3 0  9998
2 41850  98.0752  36.5369 0001504  92.7632 267.3764 15.02340415372004
OPTICUBE 04             
1 41851U 16067D   23244.84759294  .00002732  00000+0  22305-3 0  9990
2 41851  98.0653  33.8074 0014640 300.8484  59.1298 15.00250900371826
AEROCUBE 8D             
1 41852U 16067E   23244.84395743  .00006209  00000+0  46849-3 0  9998
2 41852  98.0762  35.1901 0005872 359.1278   0.9934 15.02804551371872
AEROCUBE 8C             
1 41853U 16067F   23244.84199098  .00006213  00000+0  46994-3 0  9990
2 41853  98.0565  34.5236 0008964 293.7975  66.2308 15.02691758371862
PROMETHEUS 2-1          
1 41854U 16067G   23244.68867004  .00009512  00000+0  63711-3 0  9993
2 41854  98.0780  38.0562 0015552 321.4385  38.5729 15.07038428372008
PROMETHEUS 2-3          
1 41855U 16067H   23244.88187249  .00009529  00000+0  63882-3 0  9999
2 41855  98.0702  38.0386 0013223 331.2128  28.8367 15.07030356372039
INS-1B                  
1 41954U 17008G   23244.64224478  .00188975  00000+0  12877-2 0  9995
2 41954  97.1861 306.8305 0002443 141.6018 218.5422 15.74311936364834
DIDO-2                  
1 42000U 17008BE  23244.58099872  .00025663  00000+0  58039-3 0  9994
2 42000  97.1935 299.5787 0007066 117.4455 242.7512 15.43113192363707
PEASSS                  
1 42015U 17008BV  23245.42629723  .00085275  00000+0  97522-3 0  9993
2 42015  97.1969 309.6156 0003530 115.8499 244.3123 15.61875227364874
UCLSAT                  
1 42765U 17036A   23244.38816392  .00097417  00000+0  11053-2 0  9995
2 42765  97.1321 283.3227 0006888 154.0510 206.1095 15.62018097345141
AALTO-1                 
1 42775U 17036L   23245.35004031  .00021485  00000+0  56513-3 0  9996
2 42775  97.1468 273.3017 0009781 172.4880 187.6514 15.38539917344374
URSA MAIOR              
1 42776U 17036M   23245.36758208  .00025957  00000+0  62846-3 0  9994
2 42776  97.1477 274.9158 0009614 167.8556 192.2924 15.41036325344467
DIAMOND RED             
1 42783U 17036U   23245.36569369  .00032236  00000+0  68189-3 0  9994
2 42783  97.1442 278.5968 0008046 166.3917 193.7551 15.45044836344696
PEGASUS                 
1 42784U 17036V   23244.67673667  .00061319  00000+0  91775-3 0  9996
2 42784  97.1395 281.5143 0007555 156.0813 204.0794 15.54753509344833
DIAMOND GREEN           
1 42785U 17036W   23245.04384255  .00036457  00000+0  73079-3 0  9993
2 42785  97.1430 278.6200 0007868 166.2383 193.9083 15.46598790344654
DIAMOND BLUE            
1 42786U 17036X   23245.09603145  .00032674  00000+0  67176-3 0  9999
2 42786  97.1440 278.5558 0007979 166.5521 193.5943 15.45879531344656
SUCHAI                  
1 42788U 17036Z   23244.55804562  .00226522  00000+0  14012-2 0  9994
2 42788  97.1310 286.7870 0006957 163.7614 196.3877 15.76420577345248
SKCUBE                  
1 42789U 17036AA  23244.91128713  .00102523  00000+0  11065-2 0  9991
2 42789  97.1335 284.6050 0007636 153.6736 206.4913 15.63284472345052
ROBUSTA 1B              
1 42792U 17036AD  23244.68432047  .00174376  00000+0  13570-2 0  9995
2 42792  97.1303 286.1986 0006702 155.6093 204.5489 15.71188517345157
CICERO 6                
1 42793U 17036AE  23245.37094573  .00028024  00000+0  64327-3 0  9996
2 42793  97.1427 278.4929 0007345 166.3956 193.7491 15.42648484344789
CORVUS BC2              
1 42846U 17042X   23245.30377674  .00003455  00000+0  31955-3 0  9993
2 42846  97.3830  81.9801 0007689 322.6991  37.3696 14.95140496334248
CORVUS BC1              
1 42847U 17042Y   23244.82173042  .00002895  00000+0  26790-3 0  9991
2 42847  97.3820  81.8893 0007488 321.9605  38.1087 14.95228962334180
MIRATA                  
1 43015U 17073C   23245.11940856  .00013658  00000+0  82646-3 0  9992
2 43015  97.6230 130.7081 0205905 157.2871 203.7625 14.94666823312970
MAKERSAT 0              
1 43016U 17073D   23244.44905824  .00006938  00000+0  45756-3 0  9998
2 43016  97.6202 127.6315 0221847 170.7749 189.7651 14.89746619312666
CORVUS BC3              
1 43118U 18004H   23245.13556404  .00026347  00000+0  61819-3 0  9993
2 43118  97.3198 319.5495 0006301 214.5733 145.5105 15.42012028313886
CICERO 7                
1 43143U 18004AJ  23244.49427039  .00098989  00000+0  96322-3 0  9998
2 43143  97.3241 333.6335 0003602 202.3505 157.7599 15.65953017314651
GOMX-4B                 
1 43196U 18015E   23244.41276500  .00017383  00000+0  45129-3 0  9993
2 43196  97.5873  37.7506 0012597 293.8020  66.1904 15.38964695310668
GOMX-4A                 
1 43197U 18015F   23245.47633477  .00022057  00000+0  50377-3 0  9996
2 43197  97.5872  41.3716 0011833 282.6094  77.3830 15.42808293311008
CUBEBEL-1 (BSUSAT-1)    
1 43666U 18083E   23245.49024813  .00039416  00000+0  87411-3 0  9998
2 43666  97.3739 277.8171 0008871 184.4870 175.6300 15.43598130269103
CICERO 10               
1 43690U 18088A   23244.75179807  .00025913  00000+0  65656-3 0  9996
2 43690  85.0322  20.6437 0008776 308.4976  51.5487 15.39546218267268
PROXIMA I               
1 43694U 18088E   23244.62185082  .00034209  00000+0  76885-3 0  9992
2 43694  85.0260  16.0659 0010688 266.3000  93.7032 15.43126737267543
PROXIMA II              
1 43696U 18088G   23245.09687150  .00032989  00000+0  74489-3 0  9990
2 43696  85.0262  15.8048 0010780 264.2327  95.7698 15.42989415267615
SIRION PATHFINDER-2     
1 43759U 18099B   23245.42111313  .00003353  00000+0  27903-3 0  9994
2 43759  97.5644 304.9051 0013021 215.1841 144.8524 14.99278508259193
CORVUS BC4              
1 43767U 18099K   23245.41306811  .00003375  00000+0  28478-3 0  9993
2 43767  97.5593 302.7318 0010259 220.1074 139.9393 14.98761127259092
MOVE-II                 
1 43780U 18099Y   23245.45296362  .00010800  00000+0  75794-3 0  9995
2 43780  97.5651 307.9018 0007557 243.5519 116.4932 15.05310255259355
SPACEBEE-7              
1 43816U 18099BL  23244.43934668  .00007622  00000+0  55915-3 0  9991
2 43816  97.5928 307.8231 0011664 189.2637 170.8376 15.03719025258765
SPACEBEE-5              
1 43817U 18099BM  23244.64986371  .00044929  00000+0  18889-2 0  9992
2 43817  97.5854 317.1815 0005028 175.9084 184.2195 15.23256616259315
SPACEBEE-6              
1 43818U 18099BN  23244.46200539  .00013517  00000+0  88077-3 0  9994
2 43818  97.5839 310.2533 0011437 206.7868 153.2771 15.07984320259053
SHIELDS 1               
1 43850U 18104B   23244.91082757  .00008221  00000+0  28275-3 0  9997
2 43850  85.0248 118.1385 0015256  75.0800 285.2134 15.29784801261835
STF-1                   
1 43852U 18104D   23245.05638536  .00044848  00000+0  82735-3 0  9993
2 43852  85.0194 114.4470 0011753  70.7968 289.4559 15.48856091262274
ZACUBE-2                
1 43907U 18111AH  23245.52045425  .00034970  00000+0  73819-3 0  9991
2 43907  97.1237 123.4794 0010587 296.7140  63.3025 15.45063771261078
LUME 1                  
1 43908U 18111AJ  23244.87437791  .00045237  00000+0  73621-3 0  9999
2 43908  97.1235 127.2649 0007647 280.1573  79.8818 15.52503154261263
MOVE-IIB                
1 44398U 19038N   23244.77932397  .00089418  00000+0  15512-2 0  9996
2 44398  97.6632 231.7893 0011357  43.0410 317.1727 15.50482964230495
SONATE                  
1 44400U 19038Q   23245.41151635  .00011893  00000+0  50645-3 0  9999
2 44400  97.6910 224.7636 0021582  48.1324 312.1750 15.22925185229985
LUCKY-7                 
1 44406U 19038W   23244.87832829  .00017640  00000+0  67724-3 0  9997
2 44406  97.6862 225.8278 0019772  45.0789 315.2049 15.26343587230015
BEESAT 9                
1 44412U 19038AC  23244.76881801  .00033450  00000+0  10139-2 0  9990
2 44412  97.6791 228.1630 0015886  45.8492 314.4053 15.33944185229880
JAISAT-1                
1 44419U 19038F   23244.70426738  .00032842  00000+0  98800-3 0  9991
2 44419  97.6779 229.2082 0015019  43.0777 317.1638 15.34200840230256
DUCHIFAT-3              
1 44854U 19089C   23245.46794731  .00009267  00000+0  60142-3 0  9998
2 44854  36.9626 348.9692 0008167 231.8913 128.1095 15.07580022204494
EYESAT-NANO             
1 44877U 19092E   23245.50237447  .00082293  00000+0  13437-2 0  9992
2 44877  97.4550  78.1956 0006726 214.0171 146.0651 15.52263232206052
M2 PATHFINDER           
1 45727U 20037E   23245.07014327  .00002735  00000+0  25820-3 0  9993
2 45727  97.7626  58.8783 0012284  13.9822 346.1736 14.94520190172729
NETSAT-4                
1 46504U 20068U   23245.47586358  .00007508  00000+0  48334-3 0  9991
2 46504  97.7667 192.0892 0008892 266.1430  93.8781 15.08629695160557
NETSAT-3                
1 46505U 20068V   23245.12125734  .00007085  00000+0  45930-3 0  9990
2 46505  97.7653 191.5104 0007786 278.6518  81.3827 15.08401557160502
NETSAT-1                
1 46506U 20068W   23244.78467669  .00005711  00000+0  37561-3 0  9993
2 46506  97.7665 191.0174 0006388 293.9338  66.1220 15.07961920160440
NETSAT-2                
1 46507U 20068X   23244.81418869  .00007436  00000+0  48006-3 0  9998
2 46507  97.7652 191.1434 0005938 302.1152  57.9499 15.08545966160405
SAI-1 NANOCONNECT-2     
1 47701U 21015C   23245.49887099  .00089005  00000+0  11342-2 0  9992
2 47701  97.3775 331.0603 0005674 284.5289  75.5337 15.59007022140157
WILDTRACKCUBE-SIMBA     
1 47941U 21022K   23245.48732952  .00007691  00000+0  43208-3 0  9990
2 47941  97.4864 141.1692 0020622  71.7131 288.6342 15.13405348134691
BEESAT-6                
1 47957U 21022AB  23244.51022213  .00022799  00000+0  98839-3 0  9998
2 47957  97.4839 142.8928 0017960  68.7190 291.5962 15.22230481134530
SMOG-1                  
1 47964U 21022AJ  23244.68256085  .00025740  00000+0  10539-2 0  9999
2 47964  97.4880 145.3492 0015906  56.1838 304.0911 15.24172236133714
BCCSAT-1                
1 48041U 21022AK  23244.70408816  .00019366  00000+0  86070-3 0  9991
2 48041  97.4881 144.0028 0013972  58.5122 301.7477 15.21475035133605
BEESAT-5                
1 48083U 21022AM  23244.66324870  .00027631  00000+0  11332-2 0  9991
2 48083  97.4733 143.3406 0017287  66.6004 293.7049 15.24080008133724
BEESAT-7                
1 48084U 21022AN  23244.67750749  .00027117  00000+0  11506-2 0  9993
2 48084  97.4827 143.2411 0017476  66.9781 293.3296 15.22931275133290
BEESAT-8                
1 48085U 21022AP  23244.69243098  .00010558  00000+0  52240-3 0  9992
2 48085  97.4890 142.3064 0018966  69.3446 290.9819 15.17831595133781
LEDSAT                  
1 49069U 21073D   23245.47156782  .00010117  00000+0  53369-3 0  9995
2 49069  97.4765 315.0872 0022844 209.4755 150.5191 15.15521176112602
SPORT                   
1 55129U 98067UW  23245.49803954  .00188425  00000+0  74713-3 0  9992
2 55129  51.6234 279.2557 0008573  31.7498 328.4021 15.85601419 38738
